GLOBALSTAR M067         
1 32263U 07048A   24134.24218779 -.00000052  00000+0  33935-3 0  9992
2 32263  51.9702 126.1769 0000728 213.6725 159.3897 12.40644570760083
GLOBALSTAR M070         
1 32264U 07048B   24133.62471735 -.00000052  00000+0  28714-3 0  9996
2 32264  51.9748 268.7523 0000402 116.5737 257.0113 12.62291979763083
GLOBALSTAR M066         
1 32265U 07048C   24134.40644494 -.00000101  00000+0  14200-4 0  9999
2 32265  51.9651 128.3507 0000066 281.2961 225.6741 12.62261937766380
GLOBALSTAR M068         
1 32266U 07048D   24133.59670713 -.00000030  00000+0  41220-3 0  9994
2 32266  51.9885  83.3513 0001140 359.2098 172.2009 12.62788525766941
GLOBALSTAR M079         
1 37188U 10054A   24134.16356216 -.00000067  00000+0  20788-3 0  9992
2 37188  52.0038 277.5216 0000961 122.1390  49.2759 12.62269618626611
GLOBALSTAR M074         
1 37189U 10054B   24133.68022509 -.00000068  00000+0  19777-3 0  9991
2 37189  52.0016 278.3785 0000692 114.9529 258.2964 12.62268321626487
GLOBALSTAR M076         
1 37190U 10054C   24134.42288064 -.00000062  00000+0  23277-3 0  9990
2 37190  52.0030 276.2498 0000841 152.2700 239.0819 12.62278665626652
GLOBALSTAR M077         
1 37191U 10054D   24133.53500105 -.00000050  00000+0  30251-3 0  9992
2 37191  52.0068 235.6958 0000478 137.8653 235.3416 12.62272829626553
